TEVEL2-7                
1 63238U 25052AE  26068.66113295  .00019244  00000+0  69668-3 0  9998
2 63238  97.4054 324.3041 0008105 124.6830 235.5175 15.28414096 54803
STARLINK-34106          
1 63907U 25095T   26068.31195457  .00030512  00000+0  11119-2 0  9998
2 63907  43.0031 178.0374 0006479 294.2372  65.7803 15.27617963 47729
